[{"OBJECT_NAME":"PERUSAT 1","OBJECT_ID":"2016-058A","EPOCH":"2026-03-09T23:16:32.302848","MEAN_MOTION":14.58548827,"ECCENTRICITY":0.00012113,"INCLINATION":98.2091,"RA_OF_ASC_NODE":143.8668,"ARG_OF_PERICENTER":91.7691,"MEAN_ANOMALY":268.3647,"EPHEMERIS_TYPE":0,"CLASSIFICATION_TYPE":"U","NORAD_CAT_ID":41770,"ELEMENT_SET_NO":999,"REV_AT_EPOCH":50463,"BSTAR":7.1568116e-5,"MEAN_MOTION_DOT":2.87e-6,"MEAN_MOTION_DDOT":0},{"OBJECT_NAME":"BREEZE-M DEB","OBJECT_ID":"2012-044R","EPOCH":"2026-03-09T11:12:03.419136","MEAN_MOTION":11.73981686,"ECCENTRICITY":0.18811986,"INCLINATION":49.9786,"RA_OF_ASC_NODE":125.1894,"ARG_OF_PERICENTER":162.4895,"MEAN_ANOMALY":205.0987,"EPHEMERIS_TYPE":0,"CLASSIFICATION_TYPE":"U","NORAD_CAT_ID":38884,"ELEMENT_SET_NO":999,"REV_AT_EPOCH":53107,"BSTAR":0.00073376568,"MEAN_MOTION_DOT":0.00034118,"MEAN_MOTION_DDOT":4.482423e-6}]
